{"type": "FeatureCollection", "features": [ {"type": "Feature", "properties": {"norad_id": 43010, "name": "FENGYUN 3D", "group": "weather", "lat": 13.187655462377844, "lon": 133.2754082949457, "alt_km": 826.9184073624456, "timestamp": "2025-12-10T20:49:52.203877+00:00", "meta": {"OBJECT_NAME": "FENGYUN 3D", "OBJECT_ID": "2017-072A", "EPOCH": "2025-12-10T14:58:29.438976", "MEAN_MOTION": 14.19681634, "ECCENTRICITY": 8.194e-05, "INCLINATION": 98.9893, "RA_OF_ASC_NODE": 310.9021, "ARG_OF_PERICENTER": 188.329, "MEAN_ANOMALY": 171.7872, "EPHEMERIS_TYPE": 0, "CLASSIFICATION_TYPE": "U", "NORAD_CAT_ID": 43010, "ELEMENT_SET_NO": 999, "REV_AT_EPOCH": 41823, "BSTAR": 9.703469e-06, "MEAN_MOTION_DOT": -2.5e-07, "MEAN_MOTION_DDOT": 0}, "tle": {"line1": "1 43010U 17072A   25344.62395184 -.00000025  00000+0  97035-5 0  9997", "line2": "2 43010  98.9893 310.9021 0000819 188.3290 171.7872 14.19681634418235"}}, "geometry": {"type": "Point", "coordinates": [133.2754082949457, 13.187655462377844]}}, {"type": "Feature", "properties": {"norad_id": 43013, "name": "NOAA 20 (JPSS-1)", "group": "weather", "lat": -39.57086665083201, "lon": -71.49432285826819, "alt_km": 834.3873587230764, "timestamp": "2025-12-10T20:49:52.203888+00:00", "meta": {"OBJECT_NAME": "NOAA 20 (JPSS-1)", "OBJECT_ID": "2017-073A", "EPOCH": "2025-12-10T14:15:11.702880", "MEAN_MOTION": 14.19524842, "ECCENTRICITY": 0.000215, "INCLINATION": 98.7596, "RA_OF_ASC_NODE": 280.9141, "ARG_OF_PERICENTER": 90.2971, "MEAN_ANOMALY": 269.8452, "EPHEMERIS_TYPE": 0, "CLASSIFICATION_TYPE": "U", "NORAD_CAT_ID": 43013, "ELEMENT_SET_NO": 999, "REV_AT_EPOCH": 41771, "BSTAR": 0.00010625452, "MEAN_MOTION_DOT": 1.8e-06, "MEAN_MOTION_DDOT": 0}, "tle": {"line1": "1 43013U 17073A   25344.59388545  .00000180  00000+0  10625-3 0  9999", "line2": "2 43013  98.7596 280.9141 0002150  90.2971 269.8452 14.19524842417714"}}, "geometry": {"type": "Point", "coordinates": [-71.49432285826819, -39.57086665083201]}}, {"type": "Feature", "properties": {"norad_id": 43226, "name": "GOES 17", "group": "weather", "lat": -0.26425789587583826, "lon": -57.17679176181323, "alt_km": 35773.459941871486, "timestamp": "2025-12-10T20:49:52.203900+00:00", "meta": {"OBJECT_NAME": "GOES 17", "OBJECT_ID": "2018-022A", "EPOCH": "2025-12-10T07:27:38.822400", "MEAN_MOTION": 1.00271623, "ECCENTRICITY": 0.00033712, "INCLINATION": 0.4539, "RA_OF_ASC_NODE": 89.1426, "ARG_OF_PERICENTER": 187.0405, "MEAN_ANOMALY": 185.5217, "EPHEMERIS_TYPE": 0, "CLASSIFICATION_TYPE": "U", "NORAD_CAT_ID": 43226, "ELEMENT_SET_NO": 999, "REV_AT_EPOCH": 2853, "BSTAR": 0, "MEAN_MOTION_DOT": -1.79e-06, "MEAN_MOTION_DDOT": 0}, "tle": {"line1": "1 43226U 18022A   25344.31086600 -.00000179  00000+0  00000+0 0  9998", "line2": "2 43226   0.4539  89.1426 0003371 187.0405 185.5217  1.00271623 28538"}}, "geometry": {"type": "Point", "coordinates": [-57.17679176181323, -0.26425789587583826]}}, {"type": "Feature", "properties": {"norad_id": 43491, "name": "FENGYUN 2H", "group": "weather", "lat": 1.2995761942274575, "lon": 111.61488991967457, "alt_km": 35794.8858733741, "timestamp": "2025-12-10T20:49:52.203914+00:00", "meta": {"OBJECT_NAME": "FENGYUN 2H", "OBJECT_ID": "2018-050A", "EPOCH": "2025-12-10T16:18:36.395424", "MEAN_MOTION": 1.00271066, "ECCENTRICITY": 0.00029224, "INCLINATION": 2.5457, "RA_OF_ASC_NODE": 81.3445, "ARG_OF_PERICENTER": 165.3287, "MEAN_ANOMALY": 156.9904, "EPHEMERIS_TYPE": 0, "CLASSIFICATION_TYPE": "U", "NORAD_CAT_ID": 43491, "ELEMENT_SET_NO": 999, "REV_AT_EPOCH": 2754, "BSTAR": 0, "MEAN_MOTION_DOT": -1.25e-06, "MEAN_MOTION_DDOT": 0}, "tle": {"line1": "1 43491U 18050A   25344.67958791 -.00000125  00000+0  00000+0 0  9992", "line2": "2 43491   2.5457  81.3445 0002922 165.3287 156.9904  1.00271066 27543"}}, "geometry": {"type": "Point", "coordinates": [111.61488991967457, 1.2995761942274575]}}, {"type": "Feature", "properties": {"norad_id": 43689, "name": "METOP-C", "group": "weather", "lat": 81.04387348712982, "lon": -33.45629313656866, "alt_km": 812.032398356354, "timestamp": "2025-12-10T20:49:52.203925+00:00", "meta": {"OBJECT_NAME": "METOP-C", "OBJECT_ID": "2018-087A", "EPOCH": "2025-12-10T13:39:44.396640", "MEAN_MOTION": 14.21510557, "ECCENTRICITY": 0.00014346, "INCLINATION": 98.6933, "RA_OF_ASC_NODE": 42.3721, "ARG_OF_PERICENTER": 46.3115, "MEAN_ANOMALY": 313.8181, "EPHEMERIS_TYPE": 0, "CLASSIFICATION_TYPE": "U", "NORAD_CAT_ID": 43689, "ELEMENT_SET_NO": 999, "REV_AT_EPOCH": 36803, "BSTAR": 0.00011958964, "MEAN_MOTION_DOT": 2.18e-06, "MEAN_MOTION_DDOT": 0}, "tle": {"line1": "1 43689U 18087A   25344.56926385  .00000218  00000+0  11959-3 0  9994", "line2": "2 43689  98.6933  42.3721 0001434  46.3115 313.8181 14.21510557368037"}}, "geometry": {"type": "Point", "coordinates": [-33.45629313656866, 81.04387348712982]}}, {"type": "Feature", "properties": {"norad_id": 43823, "name": "GEO-KOMPSAT-2A", "group": "weather", "lat": 0.019941840184327746, "lon": 160.55808994566647, "alt_km": 35786.337028936985, "timestamp": "2025-12-10T20:49:52.203944+00:00", "meta": {"OBJECT_NAME": "GEO-KOMPSAT-2A", "OBJECT_ID": "2018-100A", "EPOCH": "2025-12-09T23:29:38.510880", "MEAN_MOTION": 1.00269688, "ECCENTRICITY": 1.166e-05, "INCLINATION": 0.0417, "RA_OF_ASC_NODE": 144.825, "ARG_OF_PERICENTER": 34.8694, "MEAN_ANOMALY": 19.9414, "EPHEMERIS_TYPE": 0, "CLASSIFICATION_TYPE": "U", "NORAD_CAT_ID": 43823, "ELEMENT_SET_NO": 999, "REV_AT_EPOCH": 2573, "BSTAR": 0, "MEAN_MOTION_DOT": -3.41e-06, "MEAN_MOTION_DDOT": 0}, "tle": {"line1": "1 43823U 18100A   25343.97891795 -.00000341  00000+0  00000+0 0  9999", "line2": "2 43823   0.0417 144.8250 0000116  34.8694  19.9414  1.00269688 25735"}}, "geometry": {"type": "Point", "coordinates": [160.55808994566647, 0.019941840184327746]}}, {"type": "Feature", "properties": {"norad_id": 44387, "name": "METEOR-M2 2", "group": "weather", "lat": 36.42433629194897, "lon": 151.2111793946123, "alt_km": 807.4473149305732, "timestamp": "2025-12-10T20:49:52.203956+00:00", "meta": {"OBJECT_NAME": "METEOR-M2 2", "OBJECT_ID": "2019-038A", "EPOCH": "2025-12-10T13:25:05.421792", "MEAN_MOTION": 14.24290285, "ECCENTRICITY": 0.00011604, "INCLINATION": 98.8973, "RA_OF_ASC_NODE": 324.2607, "ARG_OF_PERICENTER": 151.8622, "MEAN_ANOMALY": 208.2619, "EPHEMERIS_TYPE": 0, "CLASSIFICATION_TYPE": "U", "NORAD_CAT_ID": 44387, "ELEMENT_SET_NO": 999, "REV_AT_EPOCH": 33444, "BSTAR": 0.00017698764, "MEAN_MOTION_DOT": 3.63e-06, "MEAN_MOTION_DDOT": 0}, "tle": {"line1": "1 44387U 19038A   25344.55909053  .00000363  00000+0  17699-3 0  9997", "line2": "2 44387  98.8973 324.2607 0001160 151.8622 208.2619 14.24290285334442"}}, "geometry": {"type": "Point", "coordinates": [151.2111793946123, 36.42433629194897]}}, {"type": "Feature", "properties": {"norad_id": 47719, "name": "ARKTIKA-M 1", "group": "weather", "lat": 61.76866217865022, "lon": -165.99793280357312, "alt_km": 37534.510604460746, "timestamp": "2025-12-10T20:49:52.203970+00:00", "meta": {"OBJECT_NAME": "ARKTIKA-M 1", "OBJECT_ID": "2021-016A", "EPOCH": "2025-12-09T14:03:23.859648", "MEAN_MOTION": 2.00631311, "ECCENTRICITY": 0.7202538, "INCLINATION": 63.1769, "RA_OF_ASC_NODE": 84.4506, "ARG_OF_PERICENTER": 269.1116, "MEAN_ANOMALY": 15.6235, "EPHEMERIS_TYPE": 0, "CLASSIFICATION_TYPE": "U", "NORAD_CAT_ID": 47719, "ELEMENT_SET_NO": 999, "REV_AT_EPOCH": 3498, "BSTAR": 0, "MEAN_MOTION_DOT": -6.1e-07, "MEAN_MOTION_DDOT": 0}, "tle": {"line1": "1 47719U 21016A   25343.58569282 -.00000061  00000+0  00000+0 0  9996", "line2": "2 47719  63.1769  84.4506 7202538 269.1116  15.6235  2.00631311 34985"}}, "geometry": {"type": "Point", "coordinates": [-165.99793280357312, 61.76866217865022]}}, {"type": "Feature", "properties": {"norad_id": 49008, "name": "FENGYUN 3E", "group": "weather", "lat": 47.22540272107233, "lon": 174.99045182895344, "alt_km": 821.9186459133552, "timestamp": "2025-12-10T20:49:52.203982+00:00", "meta": {"OBJECT_NAME": "FENGYUN 3E", "OBJECT_ID": "2021-062A", "EPOCH": "2025-12-10T13:26:48.368256", "MEAN_MOTION": 14.19880039, "ECCENTRICITY": 5.992e-05, "INCLINATION": 98.7475, "RA_OF_ASC_NODE": 345.1068, "ARG_OF_PERICENTER": 285.4614, "MEAN_ANOMALY": 74.6496, "EPHEMERIS_TYPE": 0, "CLASSIFICATION_TYPE": "U", "NORAD_CAT_ID": 49008, "ELEMENT_SET_NO": 999, "REV_AT_EPOCH": 22981, "BSTAR": 0.00014920959, "MEAN_MOTION_DOT": 2.73e-06, "MEAN_MOTION_DDOT": 0}, "tle": {"line1": "1 49008U 21062A   25344.56028204  .00000273  00000+0  14921-3 0  9998", "line2": "2 49008  98.7475 345.1068 0000599 285.4614  74.6496 14.19880039229814"}}, "geometry": {"type": "Point", "coordinates": [174.99045182895344, 47.22540272107233]}}, {"type": "Feature", "properties": {"norad_id": 51850, "name": "GOES 18", "group": "weather", "lat": -0.008550298898810819, "lon": -104.70671336663435, "alt_km": 35784.17410331922, "timestamp": "2025-12-10T20:49:52.203994+00:00", "meta": {"OBJECT_NAME": "GOES 18", "OBJECT_ID": "2022-021A", "EPOCH": "2025-12-10T13:22:25.194720", "MEAN_MOTION": 1.00271591, "ECCENTRICITY": 7.055e-05, "INCLINATION": 0.0068, "RA_OF_ASC_NODE": 261.5315, "ARG_OF_PERICENTER": 43.386, "MEAN_ANOMALY": 198.2167, "EPHEMERIS_TYPE": 0, "CLASSIFICATION_TYPE": "U", "NORAD_CAT_ID": 51850, "ELEMENT_SET_NO": 999, "REV_AT_EPOCH": 470, "BSTAR": 0, "MEAN_MOTION_DOT": 1.01e-06, "MEAN_MOTION_DDOT": 0}, "tle": {"line1": "1 51850U 22021A   25344.55723605  .00000101  00000+0  00000+0 0  9997", "line2": "2 51850   0.0068 261.5315 0000705  43.3860 198.2167  1.00271591  4705"}}, "geometry": {"type": "Point", "coordinates": [-104.70671336663435, -0.008550298898810819]}}]}